{"fetched_at":"2026-07-07T18:29:06.539Z","source":"https://celestrak.org/NORAD/elements/gp.php?GROUP=oneweb&FORMAT=JSON","constellation":"oneweb","records":[{"OBJECT_NAME":"ONEWEB-0233","OBJECT_ID":"2021-045AE","EPOCH":"2026-07-07T11:28:41.823840","CLASSIFICATION_TYPE":"U","MEAN_MOTION":13.15550239,"ECCENTRICITY":0.000217,"INCLINATION":87.8989,"RA_OF_ASC_NODE":255.192,"ARG_OF_PERICENTER":107.0018,"MEAN_ANOMALY":253.135,"EPHEMERIS_TYPE":0,"NORAD_CAT_ID":48795,"ELEMENT_SET_NO":999,"REV_AT_EPOCH":24696,"BSTAR":0.00046866,"MEAN_MOTION_DOT":0.00000189,"MEAN_MOTION_DDOT":0},{"OBJECT_NAME":"ONEWEB-0190","OBJECT_ID":"2021-045AF","EPOCH":"2026-07-07T03:52:32.487168","CLASSIFICATION_TYPE":"U","MEAN_MOTION":13.15548198,"ECCENTRICITY":0.000201,"INCLINATION":87.8996,"RA_OF_ASC_NODE":255.2181,"ARG_OF_PERICENTER":118.6832,"MEAN_ANOMALY":241.4501,"EPHEMERIS_TYPE":0,"NORAD_CAT_ID":48796,"ELEMENT_SET_NO":999,"REV_AT_EPOCH":24699,"BSTAR":0.00012867,"MEAN_MOTION_DOT":6.1e-7,"MEAN_MOTION_DDOT":0},{"OBJECT_NAME":"ONEWEB-0236","OBJECT_ID":"2021-045AG","EPOCH":"2026-07-06T04:33:51.065568","CLASSIFICATION_TYPE":"U","MEAN_MOTION":13.15548146,"ECCENTRICITY":0.00021655,"INCLINATION":87.8991,"RA_OF_ASC_NODE":255.4202,"ARG_OF_PERICENTER":96.9389,"MEAN_ANOMALY":263.1988,"EPHEMERIS_TYPE":0,"NORAD_CAT_ID":48797,"ELEMENT_SET_NO":999,"REV_AT_EPOCH":24675,"BSTAR":0.00024351276,"MEAN_MOTION_DOT":0.00000105,"MEAN_MOTION_DDOT":0},{"OBJECT_NAME":"ONEWEB-0248","OBJECT_ID":"2021-045AH","EPOCH":"2026-07-06T04:52:05.941920","CLASSIFICATION_TYPE":"U","MEAN_MOTION":13.15548479,"ECCENTRICITY":0.00022575,"INCLINATION":87.9002,"RA_OF_ASC_NODE":255.403,"ARG_OF_PERICENTER":110.9773,"MEAN_ANOMALY":249.1599,"EPHEMERIS_TYPE":0,"NORAD_CAT_ID":48798,"ELEMENT_SET_NO":999,"REV_AT_EPOCH":24691,"BSTAR":0.000015672552,"MEAN_MOTION_DOT":1.9e-7,"MEAN_MOTION_DDOT":0},{"OBJECT_NAME":"ONEWEB-0225","OBJECT_ID":"2021-045AJ","EPOCH":"2026-07-07T03:18:18.868896","CLASSIFICATION_TYPE":"U","MEAN_MOTION":13.15548084,"ECCENTRICITY":0.000204,"INCLINATION":87.8996,"RA_OF_ASC_NODE":255.2243,"ARG_OF_PERICENTER":115.0793,"MEAN_ANOMALY":245.0549,"EPHEMERIS_TYPE":0,"NORAD_CAT_ID":48799,"ELEMENT_SET_NO":999,"REV_AT_EPOCH":24704,"BSTAR":-0.00032762,"MEAN_MOTION_DOT":-0.00000111,"MEAN_MOTION_DDOT":0},{"OBJECT_NAME":"ONEWEB-0215","OBJECT_ID":"2021-045AK","EPOCH":"2026-07-06T04:40:41.334240","CLASSIFICATION_TYPE":"U","MEAN_MOTION":13.1554903,"ECCENTRICITY":0.0002143,"INCLINATION":87.9004,"RA_OF_ASC_NODE":255.3956,"ARG_OF_PERICENTER":118.027,"MEAN_ANOMALY":242.1077,"EPHEMERIS_TYPE":0,"NORAD_CAT_ID":48800,"ELEMENT_SET_NO":999,"REV_AT_EPOCH":24679,"BSTAR":0.00031957041,"MEAN_MOTION_DOT":0.00000133,"MEAN_MOTION_DDOT":0},{"OBJECT_NAME":"ONEWEB-0216","OBJECT_ID":"2021-045AL","EPOCH":"2026-07-07T04:38:10.506624","CLASSIFICATION_TYPE":"U","MEAN_MOTION":13.15548045,"ECCENTRICITY":0.0002,"INCLINATION":87.9001,"RA_OF_ASC_NODE":255.2109,"ARG_OF_PERICENTER":97.2169,"MEAN_ANOMALY":262.9189,"EPHEMERIS_TYPE":0,"NORAD_CAT_ID":48801,"ELEMENT_SET_NO":999,"REV_AT_EPOCH":24693,"BSTAR":0.00018659,"MEAN_MOTION_DOT":8.3e-7,"MEAN_MOTION_DDOT":0},{"OBJECT_NAME":"ONEWEB-0239","OBJECT_ID":"2021-045AM","EPOCH":"2026-07-07T04:45:01.171872","CLASSIFICATION_TYPE":"U","MEAN_MOTION":13.1554775,"ECCENTRICITY":0.0002457,"INCLINATION":87.8988,"RA_OF_ASC_NODE":255.2144,"ARG_OF_PERICENTER":117.0593,"MEAN_ANOMALY":243.0788,"EPHEMERIS_TYPE":0,"NORAD_CAT_ID":48802,"ELEMENT_SET_NO":999,"REV_AT_EPOCH":24697,"BSTAR":0.00010996,"MEAN_MOTION_DOT":5.4e-7,"MEAN_MOTION_DDOT":0},{"OBJECT_NAME":"ONEWEB-0249","OBJECT_ID":"2021-060A","EPOCH":"2026-07-06T14:01:05.326752","CLASSIFICATION_TYPE":"U","MEAN_MOTION":13.16596447,"ECCENTRICITY":0.0002165,"INCLINATION":87.9082,"RA_OF_ASC_NODE":224.9253,"ARG_OF_PERICENTER":97.1179,"MEAN_ANOMALY":263.0199,"EPHEMERIS_TYPE":0,"NORAD_CAT_ID":48967,"ELEMENT_SET_NO":999,"REV_AT_EPOCH":24216,"BSTAR":-0.000088814,"MEAN_MOTION_DOT":-2.1e-7,"MEAN_MOTION_DDOT":0},{"OBJECT_NAME":"ONEWEB-0250","OBJECT_ID":"2021-060B","EPOCH":"2026-07-06T15:03:16.552224","CLASSIFICATION_TYPE":"U","MEAN_MOTION":13.25835145,"ECCENTRICITY":0.0003136,"INCLINATION":87.9083,"RA_OF_ASC_NODE":222.6098,"ARG_OF_PERICENTER":94.5527,"MEAN_ANOMALY":265.5968,"EPHEMERIS_TYPE":0,"NORAD_CAT_ID":48968,"ELEMENT_SET_NO":999,"REV_AT_EPOCH":24279,"BSTAR":-0.000076686,"MEAN_MOTION_DOT":-2e-7,"MEAN_MOTION_DDOT":0},{"OBJECT_NAME":"ONEWEB-0252","OBJECT_ID":"2021-060D","EPOCH":"2026-07-06T14:45:34.958880","CLASSIFICATION_TYPE":"U","MEAN_MOTION":13.16594936,"ECCENTRICITY":0.0001837,"INCLINATION":87.908,"RA_OF_ASC_NODE":224.9117,"ARG_OF_PERICENTER":95.0582,"MEAN_ANOMALY":265.0759,"EPHEMERIS_TYPE":0,"NORAD_CAT_ID":48970,"ELEMENT_SET_NO":999,"REV_AT_EPOCH":24221,"BSTAR":0.000045951,"MEAN_MOTION_DOT":3e-7,"MEAN_MOTION_DDOT":0},{"OBJECT_NAME":"ONEWEB-0253","OBJECT_ID":"2021-060E","EPOCH":"2026-07-06T14:29:37.493088","CLASSIFICATION_TYPE":"U","MEAN_MOTION":13.16594853,"ECCENTRICITY":0.0002167,"INCLINATION":87.9078,"RA_OF_ASC_NODE":224.9194,"ARG_OF_PERICENTER":96.6238,"MEAN_ANOMALY":263.514,"EPHEMERIS_TYPE":0,"NORAD_CAT_ID":48971,"ELEMENT_SET_NO":999,"REV_AT_EPOCH":24214,"BSTAR":0.000035768,"MEAN_MOTION_DOT":2.7e-7,"MEAN_MOTION_DDOT":0},{"OBJECT_NAME":"ONEWEB-0254","OBJECT_ID":"2021-060F","EPOCH":"2026-07-07T01:39:55.017792","CLASSIFICATION_TYPE":"U","MEAN_MOTION":13.16593224,"ECCENTRICITY":0.0002229,"INCLINATION":87.9082,"RA_OF_ASC_NODE":224.8248,"ARG_OF_PERICENTER":102.4404,"MEAN_ANOMALY":257.6977,"EPHEMERIS_TYPE":0,"NORAD_CAT_ID":48972,"ELEMENT_SET_NO":999,"REV_AT_EPOCH":24220,"BSTAR":-0.00011407,"MEAN_MOTION_DOT":-3.1e-7,"MEAN_MOTION_DDOT":0},{"OBJECT_NAME":"ONEWEB-0255","OBJECT_ID":"2021-060G","EPOCH":"2026-07-07T00:45:11.848896","CLASSIFICATION_TYPE":"U","MEAN_MOTION":13.16593957,"ECCENTRICITY":0.0002111,"INCLINATION":87.9083,"RA_OF_ASC_NODE":224.8385,"ARG_OF_PERICENTER":99.7646,"MEAN_ANOMALY":260.3724,"EPHEMERIS_TYPE":0,"NORAD_CAT_ID":48973,"ELEMENT_SET_NO":999,"REV_AT_EPOCH":24227,"BSTAR":0.000085176,"MEAN_MOTION_DOT":4.5e-7,"MEAN_MOTION_DDOT":0},{"OBJECT_NAME":"ONEWEB-0256","OBJECT_ID":"2021-060H","EPOCH":"2026-07-06T14:26:12.254208","CLASSIFICATION_TYPE":"U","MEAN_MOTION":13.16594501,"ECCENTRICITY":0.0002021,"INCLINATION":87.9077,"RA_OF_ASC_NODE":224.9273,"ARG_OF_PERICENTER":91.9961,"MEAN_ANOMALY":268.1402,"EPHEMERIS_TYPE":0,"NORAD_CAT_ID":48974,"ELEMENT_SET_NO":999,"REV_AT_EPOCH":24218,"BSTAR":-0.00012854,"MEAN_MOTION_DOT":-3.6e-7,"MEAN_MOTION_DDOT":0},{"OBJECT_NAME":"ONEWEB-0257","OBJECT_ID":"2021-060J","EPOCH":"2026-07-06T15:12:56.267712","CLASSIFICATION_TYPE":"U","MEAN_MOTION":13.16593131,"ECCENTRICITY":0.0001975,"INCLINATION":87.9081,"RA_OF_ASC_NODE":224.9087,"ARG_OF_PERICENTER":98.0506,"MEAN_ANOMALY":262.0849,"EPHEMERIS_TYPE":0,"NORAD_CAT_ID":48975,"ELEMENT_SET_NO":999,"REV_AT_EPOCH":24214,"BSTAR":0.000039911,"MEAN_MOTION_DOT":2.8e-7,"MEAN_MOTION_DDOT":0}]}
